P/2012 K3 (Gibbs),e,13.1882,125.8201,172.2403,3.628703,0.1425860,0.42243614,182.9674,02/20.0/2023,2000,g 15.0,4.0
# From MPC 88326
P/2012 NJ (La Sagra),e,84.5543,315.6002,338.3866,8.466241,0.0400100,0.84671764,156.1034,02/20.0/2023,2000,g 14.5,4.0
# From MPC 81470
P/2012 O1 (McNaught),e,7.4268,91.9247,238.3358,3.541786,0.1478668,0.59422426,214.4113,02/20.0/2023,2000,g 17.5,4.0
# From MPC 80899
P/2012 O2 (McNaught),e,24.4665,120.6827,183.4774,3.626417,0.1427209,0.53192468,197.8549,02/20.0/2023,2000,g 17.0,4.0
# From MPC 82320
P/2012 T2 (PANSTARRS),e,12.5683,73.7166,310.8100,5.727264,0.0719090,0.16239524,257.4568,02/20.0/2023,2000,g 10.0,4.0
# From MPC 80900
P/2012 T3 (PANSTARRS),e,9.5573,114.3640,195.5440,6.151421,0.0646012,0.61660542,254.6529,02/20.0/2023,2000,g 15.0,4.0
# From MPC 82720
P/2012 U2 (PANSTARRS),e,10.7597,185.3260,228.2650,7.131299,0.0517549,0.50008458,193.9543,02/20.0/2023,2000,g 12.5,4.0
# From MPC 84024
P/2012 US27 (Siding Spring),e,39.3697,49.2081,0.8327,5.164335,0.0839813,0.64829693,308.8360,02/20.0/2023,2000,g 13.5,4.0
# From MPC 82721
P/2012 WA34 (Lemmon-PANSTARRS),e,6.0821,93.5553,356.6151,4.680003,0.0973498,0.34373140,346.4946,02/20.0/2023,2000,g 13.5,4.0
# From MPC 82721
P/2013 AL76 (Catalina),e,144.8748,146.0188,27.0402,6.500098,0.0594736,0.68589661,222.0332,02/20.0/2023,2000,g 16.0,4.0
# From MPEC 2022-K19
P/2013 EW90,e,31.7918,160.2887,346.0262,4.112088,0.1181981,0.19469952,86.9985,02/20.0/2023,2000,g 14.3,4.0
# From MPC 91612
P/2013 G1 (Kowalski),e,5.4576,221.3057,51.5475,6.898208,0.0544001,0.51104433,182.8260,02/20.0/2023,2000,g 11.0,4.0
# From MPC 84025
P/2013 G4 (PANSTARRS),e,5.9160,339.6320,214.6181,4.437916,0.1054230,0.40915934,25.9086,02/20.0/2023,2000,g 15.0,4.0
# From MPC 91613
P/2013 J2 (McNaught),e,15.5086,289.3358,37.8827,6.223319,0.0634850,0.65725468,219.6256,02/20.0/2023,2000,g 13.0,4.0
# From MPC 86229
P/2013 N3 (PANSTARRS),e,2.1735,17.4773,323.9769,7.395894,0.0490025,0.59292104,161.1480,02/20.0/2023,2000,g 13.0,4.0
# From MPC 85834
P/2013 N5 (PANSTARRS),e,23.4617,187.1552,176.9490,6.797019,0.0556194,0.73249900,195.4273,02/20.0/2023,2000,g 17.0,4.0
# From MPC 85834
P/2013 P1 (PANSTARRS),e,18.7220,160.6040,138.2544,8.583244,0.0391947,0.60440688,142.8481,02/20.0/2023,2000,g 12.0,4.0
# From MPEC 2022-V95
P/2013 R3 (Catalina-PANSTARRS),e,0.8650,341.9736,11.3026,3.031823,0.1867018,0.27562380,286.3660,02/20.0/2023,2000,g 14.0,4.0
# From unp
P/2013 R3-A (Catalina-PANSTARRS),e,0.8641,341.9284,11.3815,3.031577,0.1867245,0.27555447,286.4267,02/20.0/2023,2000,g  9.0,4.0
# From MPEC 2015-M77
P/2013 R3-B (Catalina-PANSTARRS),e,0.8654,341.9844,11.3163,3.031797,0.1867041,0.27559977,286.3606,02/20.0/2023,2000,g  9.0,4.0
# From MPC 85835
P/2013 T1 (PANSTARRS),e,24.3029,10.0803,346.1744,5.856538,0.0695413,0.62427608,242.1642,02/20.0/2023,2000,g 16.5,4.0
# From MPC 86643
P/2013 T2 (Schwartz),e,9.4569,0.8018,345.5868,3.491981,0.1510415,0.50101451,177.7787,02/20.0/2023,2000,g 16.0,4.0
# From MPC 91613
P/2013 W1 (PANSTARRS),e,4.6969,117.8391,1.2247,3.487293,0.1513461,0.59295789,135.1142,02/20.0/2023,2000,g 17.5,4.0
# From MPC101095
P/2013 YG46 (Spacewatch),e,7.8576,48.8363,242.6049,3.273693,0.1663976,0.45461594,7.4382,02/20.0/2023,2000,g 10.0,4.0
# From MPC 89728
P/2014 A2 (Hill),e,24.5481,106.6340,356.1454,5.927021,0.0683045,0.64576968,233.6105,02/20.0/2023,2000,g 15.0,4.0
# From MPC 92981
P/2014 A3 (PANSTARRS),e,13.7172,229.9777,214.1468,4.607712,0.0996497,0.24652772,353.8779,02/20.0/2023,2000,g 12.0,4.0
# From MPC102095
P/2014 C1 (TOTAS),e,2.6933,167.8199,23.9570,3.031553,0.1867267,0.45140525,262.3545,02/20.0/2023,2000,g 15.5,4.0
# From MPEC 2022-WD2
C/2014 F3 (Sheppard-Trujillo),e,6.5360,326.3167,4.5867,14.55316,0.0177528,0.60765035,11.2164,02/20.0/2023,2000,g  6.0,4.0
# From MPC 98560
P/2014 L2 (NEOWISE),e,5.1983,149.3457,182.7228,6.305623,0.0622461,0.64781652,195.1405,02/20.0/2023,2000,g 12.0,4.0
# From MPC 90769
P/2014 L3 (Hill),e,6.2661,115.4964,178.7085,8.178803,0.0421376,0.77256065,133.0296,02/20.0/2023,2000,g 16.0,4.0
# From MPC 91614
P/2014 M4 (PANSTARRS),e,3.3439,263.1798,148.0522,5.867942,0.0693386,0.59570452,206.2186,02/20.0/2023,2000,g 15.0,4.0
# From MPEC 2022-K19
P/2014 MG4 (Spacewatch-PANSTARRS),e,9.3663,311.7240,299.0263,5.013534,0.0877987,0.25887428,310.3532,02/20.0/2023,2000,g  9.5,4.0
# From MPC 98560
P/2014 O3 (PANSTARRS),e,7.7952,87.6389,204.7919,7.577629,0.0472502,0.38425105,152.6446,02/20.0/2023,2000,g 10.5,4.0
# From MPEC 2023-A50
C/2014 OG392 (PANSTARRS),e,9.0330,145.8050,254.4273,12.25533,0.0229729,0.18640947,10.0462,02/20.0/2023,2000,g  6.0,4.0
# From MPC 91616
P/2014 U4 (PANSTARRS),e,6.4290,11.8858,347.8458,3.509120,0.1499363,0.46480978,110.4050,02/20.0/2023,2000,g 18.0,4.0
# From MPEC 2023-C45
C/2014 UN271 (Bernardinelli-Bernstein),h,01/21.6613/2031,95.4299,189.8972,326.2260,1.001245,10.947484,2000,2.5,3.2
# From MPC 95211
P/2014 V1 (PANSTARRS),e,22.5240,166.1984,177.6615,5.479446,0.0768421,0.53438890,226.3107,02/20.0/2023,2000,g 14.0,4.0
# From MPC 93586
P/2014 W1 (PANSTARRS),e,8.8358,246.2246,152.1212,4.467959,0.1043615,0.38949368,328.4685,02/20.0/2023,2000,g 15.5,4.0
# From MPC105542
P/2014 W4 (PANSTARRS),e,15.2835,33.3896,67.5879,6.587657,0.0582918,0.35350450,152.0187,02/20.0/2023,2000,g 11.0,4.0
# From MPC 94281
P/2014 X1 (Elenin),e,26.0506,61.5690,33.8647,6.204380,0.0637759,0.70970320,189.5185,02/20.0/2023,2000,g 15.0,4.0
# From MPC 92275
P/2015 A3 (PANSTARRS),e,172.5422,277.3382,249.4791,7.815812,0.0451069,0.85032620,131.9155,02/20.0/2023,2000,g 20.0,4.0
# From MPC 99270
P/2015 B1 (PANSTARRS),e,18.0557,352.9147,188.8601,9.489398,0.0337168,0.36642744,91.7483,02/20.0/2023,2000,g  8.5,4.0
# From MPC109141
P/2015 B4 (Lemmon-PANSTARRS),e,1.7638,266.0696,227.2331,8.515577,0.0396628,0.56070447,116.5845,02/20.0/2023,2000,g 11.0,4.0
# From MPC101096
P/2015 C1 (TOTAS-Gibbs),e,13.9214,348.7909,178.0912,6.573641,0.0584784,0.56116893,167.2828,02/20.0/2023,2000,g 12.5,4.0
# From MPC109141
P/2015 D5 (Kowalski),e,20.5366,74.0743,39.6469,8.952630,0.0367941,0.49009794,119.4502,02/20.0/2023,2000,g  9.0,4.0
# From MPC 96866
P/2015 D6 (Lemmon-PANSTARRS),e,20.2077,45.8454,124.9970,7.134991,0.0517147,0.36142339,144.6025,02/20.0/2023,2000,g 10.5,4.0
# From MPEC 2021-P47
P/2015 HG16 (PANSTARRS),e,18.8822,57.3324,47.4149,4.786779,0.0941107,0.35199179,302.9073,02/20.0/2023,2000,g 12.5,4.0
# From MPC 95213
P/2015 K5 (PANSTARRS),e,39.9424,134.2226,106.3067,6.726672,0.0564942,0.55178971,159.4284,02/20.0/2023,2000,g 13.5,4.0
# From MPC107684
P/2015 M2 (PANSTARRS),e,3.9692,86.5824,226.0183,7.244506,0.0505465,0.17961539,137.3273,02/20.0/2023,2000,g  8.5,4.0
# From MPEC 2021-P47
C/2015 O1 (PANSTARRS),h,02/20.2067/2018,127.1676,299.8224,89.5193,1.001360,3.719812,2000,6.5,4.0
# From MPC 99819
P/2015 P4 (PANSTARRS),e,8.7179,104.6705,280.6872,6.046675,0.0662871,0.58575735,171.2820,02/20.0/2023,2000,g 14.0,4.0
# From MPEC 2022-K19
P/2015 PD229 (Cameron-ISON),e,2.0247,342.6638,352.7074,7.194051,0.0510792,0.32740603,140.1242,02/20.0/2023,2000,g 11.5,2.0
# From MPC 96867
P/2015 Q2 (Pimentel),e,146.5520,228.5404,244.6549,7.353458,0.0494273,0.75071524,134.5524,02/20.0/2023,2000,g 15.5,4.0
# From MPC 98562
P/2015 R1 (PANSTARRS),e,22.6996,48.3214,300.5910,5.880720,0.0691128,0.63422153,192.8778,02/20.0/2023,2000,g 14.0,4.0
# From MPC 95734
P/2015 R2 (PANSTARRS),e,15.4845,168.5955,149.8605,4.485145,0.1037622,0.45271441,291.0492,02/20.0/2023,2000,g 14.5,4.0
# From MPC 96280
P/2015 T3 (PANSTARRS),e,13.0937,120.5019,178.6330,4.326181,0.1095335,0.50818108,359.9227,12/21.0/2014,2000,g 14.0,4.0
# From MPC102953
P/2015 TO19 (Lemmon-PANSTARRS),e,6.5012,321.6240,89.2019,4.551495,0.1015016,0.35943022,257.7774,02/20.0/2023,2000,g 14.0,4.0
# From MPC110080
P/2015 TP200 (LINEAR),e,8.7803,7.0161,82.4385,7.264206,0.0503410,0.53635476,116.0289,02/20.0/2023,2000,g 11.0,4.0
# From MPC101098
P/2015 W2 (Catalina),e,11.6108,294.1339,117.5726,7.290706,0.0500668,0.63534874,134.9428,02/20.0/2023,2000,g 13.0,4.0
# From MPEC 2022-OB6
C/2015 XY1 (Lemmon),e,148.8517,281.5662,196.1376,16896,0.0000004,0.99953088,0.0000,04/25.3767/2018,2000,g  5.5,4.0
# From MPEC 2022-OB6
P/2015 X3 (PANSTARRS),e,24.4058,77.2680,306.7746,5.002884,0.0880792,0.44008855,241.9979,02/20.0/2023,2000,g 15.0,4.0
# From MPC115881
P/2015 X6 (PANSTARRS),e,4.5650,106.9314,329.7852,2.752169,0.2158696,0.17323393,184.7255,02/20.0/2023,2000,g 16.0,4.0
# From MPC100282
P/2016 A2 (Christensen),e,26.4040,291.6181,141.2858,4.753581,0.0950983,0.27095144,267.1712,02/20.0/2023,2000,g 11.5,4.0
# From MPEC 2022-OB6
P/2016 A3 (PANSTARRS),e,8.5112,187.2183,340.9021,7.878806,0.0445670,0.38604359,94.7619,02/20.0/2023,2000,g 10.0,4.0
# From MPC102098
P/2016 A7 (PANSTARRS),e,16.6034,221.4974,352.5147,5.035333,0.0872292,0.56449975,223.1640,02/20.0/2023,2000,g 16.0,4.0
# From MPC109143
P/2016 BA14 (PANSTARRS),e,18.8968,180.5134,351.9713,3.026816,0.1871652,0.66438809,114.7383,02/20.0/2023,2000,g 21.0,4.0
# From MPEC 2021-P47
P/2016 G1 (PANSTARRS),e,10.9711,204.0173,111.1506,2.582933,0.2374293,0.21065543,166.2662,02/20.0/2023,2000,g 14.0,4.0
# From MPEC 2017-D91
P/2016 J1-A (PANSTARRS),e,14.3294,199.8079,47.1072,3.173066,0.1743755,0.22771055,63.4584,02/20.0/2023,2000,g 16.5,4.0
# From MPEC 2017-A77
P/2016 J1-B (PANSTARRS),e,14.3321,199.8127,46.9987,3.172703,0.1744054,0.22756114,63.6069,02/20.0/2023,2000,g 17.0,4.0
# From MPEC 2022-ED3
C/2016 M1 (PANSTARRS),e,90.8611,92.2642,209.9347,44032,0.0000001,0.99994971,0.0000,08/10.4819/2018,2000,g  5.0,4.0
# From MPEC 2021-P47
C/2016 N6 (PANSTARRS),e,105.8630,298.9067,162.5804,963.4913,0.0000330,0.99723936,0.0000,07/17.4239/2018,2000,g  7.0,4.0
# From MPC102099
P/2016 P1 (PANSTARRS),e,24.4034,319.5010,270.5626,3.200309,0.1721536,0.28930349,106.4855,02/20.0/2023,2000,g 15.0,4.0
# From MPEC 2023-CD7
C/2016 Q2 (PANSTARRS),h,05/12.3863/2021,109.3806,322.3119,84.5573,1.002993,7.081861,2000,6.0,4.0
# From MPEC 2021-N06
C/2016 R2 (PANSTARRS),e,58.3362,80.5109,33.0926,478.5561,0.0000941,0.99457516,0.0000,05/09.2866/2018,2000,g  7.0,4.0
